[{"OBJECT_NAME":"STARLINK-5058","OBJECT_ID":"2023-015H","EPOCH":"2026-03-09T02:32:22.301088","MEAN_MOTION":15.02731068,"ECCENTRICITY":6.189e-5,"INCLINATION":43.0045,"RA_OF_ASC_NODE":329.3796,"ARG_OF_PERICENTER":311.3387,"MEAN_ANOMALY":48.7402,"EPHEMERIS_TYPE":0,"CLASSIFICATION_TYPE":"U","NORAD_CAT_ID":55456,"ELEMENT_SET_NO":999,"REV_AT_EPOCH":17066,"BSTAR":0.0019281234,"MEAN_MOTION_DOT":0.00026074,"MEAN_MOTION_DDOT":0},{"OBJECT_NAME":"DELTA 2 R\/B(1)","OBJECT_ID":"1992-009B","EPOCH":"2026-03-09T12:17:31.364448","MEAN_MOTION":14.93413608,"ECCENTRICITY":0.00380129,"INCLINATION":19.9949,"RA_OF_ASC_NODE":116.2431,"ARG_OF_PERICENTER":331.0025,"MEAN_ANOMALY":28.8287,"EPHEMERIS_TYPE":0,"CLASSIFICATION_TYPE":"U","NORAD_CAT_ID":21891,"ELEMENT_SET_NO":999,"REV_AT_EPOCH":81986,"BSTAR":0.00029183889,"MEAN_MOTION_DOT":3.628e-5,"MEAN_MOTION_DDOT":0}]
